{"fetched_at":"2026-07-08T18:00:24.715Z","source":"https://celestrak.org/NORAD/elements/gp.php?NAME=RCM&FORMAT=JSON","constellation":"rcm","records":[{"OBJECT_NAME":"RCM-1","OBJECT_ID":"2019-033A","EPOCH":"2026-07-08T12:28:55.858080","CLASSIFICATION_TYPE":"U","MEAN_MOTION":14.92587858,"ECCENTRICITY":0.000151,"INCLINATION":97.76,"RA_OF_ASC_NODE":196.6648,"ARG_OF_PERICENTER":91.3432,"MEAN_ANOMALY":268.796,"EPHEMERIS_TYPE":0,"NORAD_CAT_ID":44322,"ELEMENT_SET_NO":999,"REV_AT_EPOCH":38526,"BSTAR":0.000055781,"MEAN_MOTION_DOT":0.00000518,"MEAN_MOTION_DDOT":0},{"OBJECT_NAME":"RCM-3","OBJECT_ID":"2019-033B","EPOCH":"2026-07-08T11:24:56.809728","CLASSIFICATION_TYPE":"U","MEAN_MOTION":14.92584918,"ECCENTRICITY":0.0001541,"INCLINATION":97.7601,"RA_OF_ASC_NODE":196.7154,"ARG_OF_PERICENTER":89.0393,"MEAN_ANOMALY":271.1003,"EPHEMERIS_TYPE":0,"NORAD_CAT_ID":44323,"ELEMENT_SET_NO":999,"REV_AT_EPOCH":38527,"BSTAR":-0.000016012,"MEAN_MOTION_DOT":-0.0000022,"MEAN_MOTION_DDOT":0},{"OBJECT_NAME":"RCM-2","OBJECT_ID":"2019-033C","EPOCH":"2026-07-08T11:56:55.675968","CLASSIFICATION_TYPE":"U","MEAN_MOTION":14.92585831,"ECCENTRICITY":0.0001505,"INCLINATION":97.76,"RA_OF_ASC_NODE":196.6876,"ARG_OF_PERICENTER":91.0088,"MEAN_ANOMALY":269.1304,"EPHEMERIS_TYPE":0,"NORAD_CAT_ID":44324,"ELEMENT_SET_NO":999,"REV_AT_EPOCH":38526,"BSTAR":0.000021753,"MEAN_MOTION_DOT":0.00000168,"MEAN_MOTION_DDOT":0}]}
