RCM-1                   
1 44322U 19033A   26189.52009095  .00000518  00000+0  55781-4 0  9990
2 44322  97.7600 196.6648 0001510  91.3432 268.7960 14.92587858385264
RCM-3                   
1 44323U 19033B   26189.47565752 -.00000220  00000+0 -16012-4 0  9998
2 44323  97.7601 196.7154 0001541  89.0393 271.1003 14.92584918385274
RCM-2                   
1 44324U 19033C   26189.49786662  .00000168  00000+0  21753-4 0  9993
2 44324  97.7600 196.6876 0001505  91.0088 269.1304 14.92585831385263
